[{"OBJECT_NAME":"ONEWEB-0306","OBJECT_ID":"2021-083C","EPOCH":"2026-03-09T19:40:52.470336","MEAN_MOTION":13.1868643,"ECCENTRICITY":0.00019615,"INCLINATION":87.9253,"RA_OF_ASC_NODE":355.177,"ARG_OF_PERICENTER":83.756,"MEAN_ANOMALY":276.3795,"EPHEMERIS_TYPE":0,"CLASSIFICATION_TYPE":"U","NORAD_CAT_ID":49188,"ELEMENT_SET_NO":999,"REV_AT_EPOCH":21692,"BSTAR":-3.3693105e-5,"MEAN_MOTION_DOT":0,"MEAN_MOTION_DDOT":0},{"OBJECT_NAME":"SCOUT G-1 R\/B","OBJECT_ID":"1985-066C","EPOCH":"2026-03-09T14:12:10.795104","MEAN_MOTION":13.35448878,"ECCENTRICITY":0.0167666,"INCLINATION":90.1655,"RA_OF_ASC_NODE":96.016,"ARG_OF_PERICENTER":227.1317,"MEAN_ANOMALY":131.5642,"EPHEMERIS_TYPE":0,"CLASSIFICATION_TYPE":"U","NORAD_CAT_ID":15938,"ELEMENT_SET_NO":999,"REV_AT_EPOCH":97540,"BSTAR":9.1498e-5,"MEAN_MOTION_DOT":5.8e-7,"MEAN_MOTION_DDOT":0}]
